[{"OBJECT_NAME":"STARLINK-30775","OBJECT_ID":"2023-162X","EPOCH":"2026-03-09T22:00:01.999584","MEAN_MOTION":15.26756765,"ECCENTRICITY":0.00014114,"INCLINATION":42.9997,"RA_OF_ASC_NODE":130.6204,"ARG_OF_PERICENTER":247.4455,"MEAN_ANOMALY":289.7196,"EPHEMERIS_TYPE":0,"CLASSIFICATION_TYPE":"U","NORAD_CAT_ID":58139,"ELEMENT_SET_NO":999,"REV_AT_EPOCH":578,"BSTAR":-0.00038328822,"MEAN_MOTION_DOT":-0.00010532,"MEAN_MOTION_DDOT":0},{"OBJECT_NAME":"HERMES-2","OBJECT_ID":"2025-052AK","EPOCH":"2026-03-09T22:17:00.130272","MEAN_MOTION":15.28021069,"ECCENTRICITY":0.00063399,"INCLINATION":97.4004,"RA_OF_ASC_NODE":324.4926,"ARG_OF_PERICENTER":99.416,"MEAN_ANOMALY":260.7796,"EPHEMERIS_TYPE":0,"CLASSIFICATION_TYPE":"U","NORAD_CAT_ID":63243,"ELEMENT_SET_NO":999,"REV_AT_EPOCH":5485,"BSTAR":0.00034839454,"MEAN_MOTION_DOT":9.456e-5,"MEAN_MOTION_DDOT":0}]
